[
    {
        "name": "Sateliot 05",
        "TLE1": "1 99005U 26180BU  24318.16080353  .00006041  00000-0  59249-3 0 89995",
        "TLE2": "2 99005 087.4000 000.0000 0001076 000.0000 000.0000 14.63212766 13175",
        "type": 1,
        "country": "Spain",
        "payload": "Sateliot-5",
        "launchDate": "2026-06-30",
        "stableDate": "2026-06-30",
        "owner": "STIOT",
        "manufacturer": "Alen Space",
        "bus": "Cubesat 6U",
        "launchMass": "7.407",
        "dryMass": "7.407",
        "length": "0.3",
        "diameter": "0.2",
        "span": "0.4",
        "shape": "Box + 2 pan",
        "altName": "Sateliot-5",
        "launchPad": "VSFBS SLC4E",
        "launchVehicle": "Falcon 9",
        "launchSite": "AFWTR"
    },
    {
        "name": "Sateliot 06",
        "TLE1": "1 99006U 26180BU  24318.16080353  .00006041  00000-0  59249-3 0 89995",
        "TLE2": "2 99006 087.4000  00.0000 0001076 000.0000 180.0000 14.63212766 13175",
        "type": 1,
        "country": "Spain",
        "payload": "Sateliot-6",
        "launchDate": "2026-06-30",
        "stableDate": "2026-06-30",
        "owner": "STIOT",
        "manufacturer": "Alen Space",
        "bus": "Cubesat 6U",
        "launchMass": "7.407",
        "dryMass": "7.407",
        "length": "0.3",
        "diameter": "0.2",
        "span": "0.4",
        "shape": "Box + 2 pan",
        "altName": "Sateliot-6",
        "launchPad": "VSFBS SLC4E",
        "launchVehicle": "Falcon 9",
        "launchSite": "AFWTR"
    },
    {
        "name": "Sateliot 07",
        "TLE1": "1 99007U 26180BU  24318.16080353  .00006041  00000-0  59249-3 0 89995",
        "TLE2": "2 99007  87.4000  22.5000 0001076 000.0000 135.0000 14.63212766 13175",
        "type": 1,
        "country": "Spain",
        "payload": "Sateliot-7",
        "launchDate": "2026-06-30",
        "stableDate": "2026-06-30",
        "owner": "STIOT",
        "manufacturer": "Alen Space",
        "bus": "Cubesat 6U",
        "launchMass": "7.407",
        "dryMass": "7.407",
        "length": "0.3",
        "diameter": "0.2",
        "span": "0.4",
        "shape": "Box + 2 pan",
        "altName": "Sateliot-7",
        "launchPad": "VSFBS SLC4E",
        "launchVehicle": "Falcon 9",
        "launchSite": "AFWTR"
    },
    {
        "name": "Sateliot 08",
        "TLE1": "1 99008U 26180BU  24318.16080353  .00006041  00000-0  59249-3 0 89995",
        "TLE2": "2 99008  87.4000  22.5000 0001076 000.0000 315.0000 14.63212766 13175",
        "type": 1,
        "country": "Spain",
        "payload": "Sateliot-8",
        "launchDate": "2026-06-30",
        "stableDate": "2026-06-30",
        "owner": "STIOT",
        "manufacturer": "Alen Space",
        "bus": "Cubesat 6U",
        "launchMass": "7.407",
        "dryMass": "7.407",
        "length": "0.3",
        "diameter": "0.2",
        "span": "0.4",
        "shape": "Box + 2 pan",
        "altName": "Sateliot-8",
        "launchPad": "VSFBS SLC4E",
        "launchVehicle": "Falcon 9",
        "launchSite": "AFWTR"
    },
    {
        "name": "Sateliot 09",
        "TLE1": "1 99009U 26180BU  24318.16080353  .00006041  00000-0  59249-3 0 89995",
        "TLE2": "2 99009  87.4000  45.0000 0001076 000.0000 090.0000 14.63212766 13175",
        "type": 1,
        "country": "Spain",
        "payload": "Sateliot-9",
        "launchDate": "2026-06-30",
        "stableDate": "2026-06-30",
        "owner": "STIOT",
        "manufacturer": "Alen Space",
        "bus": "Cubesat 6U",
        "launchMass": "7.407",
        "dryMass": "7.407",
        "length": "0.3",
        "diameter": "0.2",
        "span": "0.4",
        "shape": "Box + 2 pan",
        "altName": "Sateliot-9",
        "launchPad": "VSFBS SLC4E",
        "launchVehicle": "Falcon 9",
        "launchSite": "AFWTR"
    },
    {
        "name": "Sateliot 10",
        "TLE1": "1 99010U 26180BU  24318.16080353  .00006041  00000-0  59249-3 0 89995",
        "TLE2": "2 99010  87.4000  45.0000 0001076 000.0000 270.0000 14.63212766 13175",
        "type": 1,
        "country": "Spain",
        "payload": "Sateliot-10",
        "launchDate": "2026-06-30",
        "stableDate": "2026-06-30",
        "owner": "STIOT",
        "manufacturer": "Alen Space",
        "bus": "Cubesat 6U",
        "launchMass": "7.407",
        "dryMass": "7.407",
        "length": "0.3",
        "diameter": "0.2",
        "span": "0.4",
        "shape": "Box + 2 pan",
        "altName": "Sateliot-10",
        "launchPad": "VSFBS SLC4E",
        "launchVehicle": "Falcon 9",
        "launchSite": "AFWTR"
    },
    {
        "name": "Sateliot 11",
        "TLE1": "1 99011U 26180BU  24318.16080353  .00006041  00000-0  59249-3 0 89995",
        "TLE2": "2 99011  87.4000  67.5000 0001076 000.0000 135.0000 14.63212766 13175",
        "type": 1,
        "country": "Spain",
        "payload": "Sateliot-11",
        "launchDate": "2026-06-30",
        "stableDate": "2026-06-30",
        "owner": "STIOT",
        "manufacturer": "Alen Space",
        "bus": "Cubesat 6U",
        "launchMass": "7.407",
        "dryMass": "7.407",
        "length": "0.3",
        "diameter": "0.2",
        "span": "0.4",
        "shape": "Box + 2 pan",
        "altName": "Sateliot-11",
        "launchPad": "VSFBS SLC4E",
        "launchVehicle": "Falcon 9",
        "launchSite": "AFWTR"
    },
    {
        "name": "Sateliot 12",
        "TLE1": "1 99012U 26180BU  24318.16080353  .00006041  00000-0  59249-3 0 89995",
        "TLE2": "2 99012  87.4000  67.5000 0001076 000.0000 315.0000 14.63212766 13175",
        "type": 1,
        "country": "Spain",
        "payload": "Sateliot-12",
        "launchDate": "2026-06-30",
        "stableDate": "2026-06-30",
        "owner": "STIOT",
        "manufacturer": "Alen Space",
        "bus": "Cubesat 6U",
        "launchMass": "7.407",
        "dryMass": "7.407",
        "length": "0.3",
        "diameter": "0.2",
        "span": "0.4",
        "shape": "Box + 2 pan",
        "altName": "Sateliot-12",
        "launchPad": "VSFBS SLC4E",
        "launchVehicle": "Falcon 9",
        "launchSite": "AFWTR"
    },
    {
        "name": "Sateliot 13",
        "TLE1": "1 99013U 26180BU  24318.16080353  .00006041  00000-0  59249-3 0 89995",
        "TLE2": "2 99013  87.4000  90.0000 0001076 000.0000 090.0000 14.63212766 13175",
        "type": 1,
        "country": "Spain",
        "payload": "Sateliot-13",
        "launchDate": "2026-06-30",
        "stableDate": "2026-06-30",
        "owner": "STIOT",
        "manufacturer": "Alen Space",
        "bus": "Cubesat 6U",
        "launchMass": "7.407",
        "dryMass": "7.407",
        "length": "0.3",
        "diameter": "0.2",
        "span": "0.4",
        "shape": "Box + 2 pan",
        "altName": "Sateliot-13",
        "launchPad": "VSFBS SLC4E",
        "launchVehicle": "Falcon 9",
        "launchSite": "AFWTR"
    },
    {
        "name": "Sateliot 14",
        "TLE1": "1 99014U 26180BU  24318.16080353  .00006041  00000-0  59249-3 0 89995",
        "TLE2": "2 99014  87.4000  90.0000 0001076 000.0000 270.0000 14.63212766 13175",
        "type": 1,
        "country": "Spain",
        "payload": "Sateliot-14",
        "launchDate": "2026-06-30",
        "stableDate": "2026-06-30",
        "owner": "STIOT",
        "manufacturer": "Alen Space",
        "bus": "Cubesat 6U",
        "launchMass": "7.407",
        "dryMass": "7.407",
        "length": "0.3",
        "diameter": "0.2",
        "span": "0.4",
        "shape": "Box + 2 pan",
        "altName": "Sateliot-14",
        "launchPad": "VSFBS SLC4E",
        "launchVehicle": "Falcon 9",
        "launchSite": "AFWTR"
    },
    {
        "name": "Sateliot 15",
        "TLE1": "1 99015U 26180BU  24318.16080353  .00006041  00000-0  59249-3 0 89995",
        "TLE2": "2 99015  87.4000  112.500 0001076 000.0000 135.0000 14.63212766 13175",
        "type": 1,
        "country": "Spain",
        "payload": "Sateliot-15",
        "launchDate": "2026-06-30",
        "stableDate": "2026-06-30",
        "owner": "STIOT",
        "manufacturer": "Alen Space",
        "bus": "Cubesat 6U",
        "launchMass": "7.407",
        "dryMass": "7.407",
        "length": "0.3",
        "diameter": "0.2",
        "span": "0.4",
        "shape": "Box + 2 pan",
        "altName": "Sateliot-15",
        "launchPad": "VSFBS SLC4E",
        "launchVehicle": "Falcon 9",
        "launchSite": "AFWTR"
    },
    {
        "name": "Sateliot 16",
        "TLE1": "1 99016U 26180BU  24318.16080353  .00006041  00000-0  59249-3 0 89995",
        "TLE2": "2 99016  87.4000  112.500 0001076 000.0000 315.0000 14.63212766 13175",
        "type": 1,
        "country": "Spain",
        "payload": "Sateliot-16",
        "launchDate": "2026-06-30",
        "stableDate": "2026-06-30",
        "owner": "STIOT",
        "manufacturer": "Alen Space",
        "bus": "Cubesat 6U",
        "launchMass": "7.407",
        "dryMass": "7.407",
        "length": "0.3",
        "diameter": "0.2",
        "span": "0.4",
        "shape": "Box + 2 pan",
        "altName": "Sateliot-16",
        "launchPad": "VSFBS SLC4E",
        "launchVehicle": "Falcon 9",
        "launchSite": "AFWTR"
    }
]